     2.100          NAVIGATION                              RINEX VERSION / TYPE
fic2rin                                 11/17/2012 00:23:12 PGM / RUN BY / DATE
                                                            END OF HEADER
19 12 11 16 20  0  0.0 -.322750303894D-03 -.341060513165D-11  .000000000000D+00
     .330000000000D+02 -.175937500000D+02  .446982904346D-08 -.560341936148D+00
    -.866129994392D-06  .865899049677D-02  .104028731585D-04  .515364004135D+04
     .504000000000D+06  .163912773132D-06  .108498002678D+01 -.111758708954D-07
     .961135798547D+00  .177906250000D+03  .270443273825D+00 -.799104714490D-08
     .582524264474D-09  .100000000000D+01  .171400000000D+04  .000000000000D+00
     .240000000000D+01  .000000000000D+00 -.144354999065D-07  .330000000000D+02
     .496806000000D+06  .400000000000D+01
20 12 11 16 20  0  0.0  .735642388463D-04  .113686837722D-11  .000000000000D+00
     .640000000000D+02 -.484375000000D+01  .526164774018D-08  .220144485650D+01
    -.385567545891D-06  .527112733107D-02  .935979187489D-05  .515359907150D+04
     .504000000000D+06 -.447034835815D-07  .304066689351D+01 -.651925802231D-07
     .929443524562D+00  .179812500000D+03  .127116448282D+01 -.823820029697D-08
    -.629311927654D-09  .100000000000D+01  .171400000000D+04  .000000000000D+00
     .240000000000D+01  .000000000000D+00 -.791624188423D-08  .640000000000D+02
     .496806000000D+06  .400000000000D+01
21 12 11 16 20  0  0.0 -.262628775090D-03 -.238742359215D-11  .000000000000D+00
     .710000000000D+02  .706250000000D+01  .560951937328D-08  .280318436068D+01
     .191852450371D-06  .194548213622D-01  .572390854359D-05  .515376218414D+04
     .504000000000D+06  .279396772385D-07  .204501447038D+01 -.284984707832D-06
     .931037773186D+00  .253500000000D+03 -.220390722266D+01 -.816712590786D-08
     .195722438339D-09  .100000000000D+01  .171400000000D+04  .000000000000D+00
     .240000000000D+01  .000000000000D+00 -.111758708954D-07  .710000000000D+02
     .496806000000D+06  .400000000000D+01
22 12 11 16 20  0  0.0  .151394400746D-03  .909494701773D-12  .000000000000D+00
     .410000000000D+02 -.100937500000D+02  .554094508832D-08  .966731422164D+00
    -.441446900368D-06  .619127985556D-02  .943429768085D-05  .515366927528D+04
     .504000000000D+06 -.856816768646D-07  .309725490695D+01  .242143869400D-07
     .926596769366D+00  .182343750000D+03 -.201130978141D+01 -.852999816581D-08
    -.652884338110D-09  .100000000000D+01  .171400000000D+04  .000000000000D+00
     .240000000000D+01  .000000000000D+00 -.172294676304D-07  .410000000000D+02
     .496806000000D+06  .400000000000D+01
23 12 11 16 20  0  0.0  .143325887620D-03 -.386535248253D-11  .000000000000D+00
     .220000000000D+02  .119687500000D+03  .431125100948D-08 -.931805081033D+00
     .614859163761D-05  .812596874312D-02  .859983265400D-05  .515379511642D+04
     .504000000000D+06  .165775418282D-06 -.213386958951D+01 -.108033418655D-06
     .958167871309D+00  .213281250000D+03 -.291829038758D+01 -.800569061201D-08
    -.464305054455D-11  .100000000000D+01  .171400000000D+04  .000000000000D+00
     .240000000000D+01  .000000000000D+00 -.204890966415D-07  .220000000000D+02
     .496806000000D+06  .400000000000D+01
24 12 11 16 20  0  0.0  .386126339436D-05 -.568434188608D-12  .000000000000D+00
     .780000000000D+02  .382187500000D+02  .474662628747D-08 -.107777067432D+01
     .208057463169D-05  .158656621352D-03  .657513737679D-06  .515372228432D+04
     .504000000000D+06 -.111758708954D-06 -.110681172089D+01 -.335276126862D-07
     .959224863269D+00  .367843750000D+03 -.457283494596D+00 -.855142762986D-08
     .678599694973D-10  .100000000000D+01  .171400000000D+04  .000000000000D+00
     .340000000000D+01  .000000000000D+00  .465661287308D-08  .780000000000D+02
     .496806000000D+06  .400000000000D+01
25 12 11 16 20  0  0.0  .514802522957D-04  .193267624127D-11  .000000000000D+00
     .510000000000D+02 -.140781250000D+03  .409195616068D-08  .230656575507D+01
    -.722333788872D-05  .182701472659D-02  .610202550888D-05  .515363714600D+04
     .504000000000D+06  .670552253723D-07 -.602119292343D-01  .130385160446D-07
     .971095521844D+00  .266875000000D+03  .694769608652D+00 -.805676416800D-08
    -.175721605224D-09  .100000000000D+01  .171400000000D+04  .000000000000D+00
     .240000000000D+01  .000000000000D+00  .512227416039D-08  .510000000000D+02
     .496806000000D+06  .400000000000D+01
26 12 11 16 20  0  0.0 -.207722187042D-03  .135287336889D-10  .000000000000D+00
     .200000000000D+02  .146156250000D+03  .388766193672D-08 -.109109301869D+01
     .777840614319D-05  .208512106910D-01  .829622149467D-05  .515366821098D+04
     .504000000000D+06  .186264514923D-07 -.205737186520D+01  .493600964546D-06
     .981289470028D+00  .233500000000D+03  .121061699529D+01 -.802283418325D-08
    -.678599694973D-11  .100000000000D+01  .171400000000D+04  .000000000000D+00
     .240000000000D+01  .000000000000D+00 -.605359673500D-08  .200000000000D+02
     .496806000000D+06  .400000000000D+01
27 12 11 16 20  0  0.0 -.212810933590D-03  .306954461848D-11  .000000000000D+00
     .300000000000D+02 -.130093750000D+03  .533379360248D-08  .990146839202D+00
    -.681169331074D-05  .560979917645D-02  .638701021671D-05  .515360743713D+04
     .504000000000D+06 -.577419996262D-07 -.445007127876D-01 -.391155481339D-07
     .975975322090D+00  .265812500000D+03  .876550628606D+00 -.800854787388D-08
    -.202865593023D-09  .100000000000D+01  .171400000000D+04  .000000000000D+00
     .240000000000D+01  .630000000000D+02 -.190921127796D-07  .300000000000D+02
     .496806000000D+06  .400000000000D+01
28 12 11 16 20  0  0.0  .205290503800D-03  .363797880709D-11  .000000000000D+00
     .300000000000D+02 -.132187500000D+03  .398516599816D-08  .916387456153D+00
    -.696443021297D-05  .183529653586D-01  .825151801109D-05  .515363920403D+04
     .504000000000D+06 -.296160578728D-06  .590430810956D-03 -.372529029846D-08
     .981426210444D+00  .236437500000D+03 -.181417766278D+01 -.818962684512D-08
    -.269654089318D-09  .100000000000D+01  .171400000000D+04  .000000000000D+00
     .240000000000D+01  .000000000000D+00 -.107102096081D-07  .300000000000D+02
     .496806000000D+06  .400000000000D+01
29 12 11 16 20  0  0.0  .377725344151D-03  .409272615798D-11  .000000000000D+00
     .770000000000D+02 -.350312500000D+02  .426089176896D-08  .305855538703D+01
    -.195205211639D-05  .175294047222D-02  .111963599920D-04  .515375287437D+04
     .504000000000D+06  .521540641785D-07  .104112921535D+01  .745058059692D-07
     .964453197895D+00  .162718750000D+03 -.110178682258D+01 -.774139388870D-08
     .621811615235D-09  .100000000000D+01  .171400000000D+04  .000000000000D+00
     .240000000000D+01  .000000000000D+00 -.931322574615D-08  .770000000000D+02
     .496806000000D+06  .400000000000D+01
30 12 11 16 20  0  0.0 -.318517908454D-03  .145519152284D-10  .000000000000D+00
     .119000000000D+03 -.126062500000D+03  .441839832974D-08  .945367945227D-01
    -.657886266708D-05  .109861345263D-01  .556185841560D-05  .515374440956D+04
     .504000000000D+06 -.188127160072D-06 -.152638996930D+00 -.102445483208D-06
     .962205899715D+00  .275562500000D+03  .161627323750D+01 -.833534720067D-08
    -.174292974288D-09  .100000000000D+01  .171400000000D+04  .000000000000D+00
     .240000000000D+02  .000000000000D+00 -.465661287308D-08  .119000000000D+03
     .496806000000D+06  .400000000000D+01
31 12 11 16 20  0  0.0  .287135597318D-03  .227373675443D-11  .000000000000D+00
     .610000000000D+02  .328437500000D+02  .426982071231D-08 -.259966032286D+01
     .179372727871D-05  .800072541460D-02  .103749334812D-05  .515376584244D+04
     .504000000000D+06  .242143869400D-07 -.107778470078D+01  .150874257088D-06
     .980649784228D+00  .371718750000D+03 -.847843029345D+00 -.817926927082D-08
     .342871424828D-10  .100000000000D+01  .171400000000D+04  .000000000000D+00
     .240000000000D+01  .000000000000D+00 -.135041773319D-07  .610000000000D+02
     .496806000000D+06  .400000000000D+01
32 12 11 16 20  0  0.0 -.508508179337D-03 -.352429196937D-11  .000000000000D+00
     .110000000000D+03  .121875000000D+02  .471198198725D-08 -.196013902677D+01
     .530853867531D-06  .117975857574D-01  .107623636723D-04  .515353656006D+04
     .504000000000D+06 -.365078449249D-06 -.310674940474D+01 -.124797224998D-06
     .950845176347D+00  .166875000000D+03 -.467140781443D+00 -.807497921244D-08
    -.581095633537D-09  .100000000000D+01  .171400000000D+04  .000000000000D+00
     .240000000000D+01  .000000000000D+00 -.325962901115D-08  .110000000000D+03
     .496806000000D+06  .400000000000D+01
 1 12 11 16 22  0  0.0  .282814726233D-03  .181898940355D-11  .000000000000D+00
     .450000000000D+02  .843750000000D+01  .504128141818D-08 -.117822461406D+01
     .426545739174D-06  .141729100142D-02  .581704080105D-05  .515370333290D+04
     .511200000000D+06 -.186264514923D-07  .204087260990D+01  .745058059692D-08
     .959721898464D+00  .265875000000D+03  .523596342278D+00 -.824212903204D-08
     .250724729406D-09  .100000000000D+01  .171400000000D+04  .000000000000D+00
     .240000000000D+01  .000000000000D+00  .838190317154D-08  .450000000000D+02
     .504006000000D+06  .400000000000D+01
 2 12 11 16 22  0  0.0  .409115105867D-03  .102318153949D-11  .000000000000D+00
     .810000000000D+02  .737500000000D+01  .571202364300D-08 -.168405513143D+00
     .542029738426D-06  .115881768288D-01  .546500086784D-05  .515377706909D+04
     .511200000000D+06  .100582838058D-06  .202340472727D+01  .130385160446D-06
     .938237218763D+00  .263093750000D+03 -.272257405327D+01 -.870286250916D-08
     .196079596074D-09  .100000000000D+01  .171400000000D+04  .000000000000D+00
     .240000000000D+01  .000000000000D+00 -.176951289177D-07  .810000000000D+02
     .504006000000D+06  .400000000000D+01
